start=new Date('2022-03-05T00:00:00.000Z').valueOf();
sats=[{"GP_ID":"197908314","ELEMENT_SET_NO":"999","MEAN_MOTION_DOT":"0.00020484","RCS_SIZE":null,"TIME_SYSTEM":"UTC","TLE_LINE1":"1 51732U 22016U   22063.91667824  .00020484  00000-0  14995-3 0  9994","OBJECT_TYPE":"PAYLOAD","MEAN_MOTION":"15.73209859","APOAPSIS":"350.600","MEAN_ELEMENT_THEORY":"SGP4","REF_FRAME":"TEME","BSTAR":"0.00014995000000","FILE":"3344863","REV_AT_EPOCH":"246","SEMIMAJOR_AXIS":"6727.867","MEAN_MOTION_DDOT":"0.0000000000000","INCLINATION":"53.2176","COUNTRY_CODE":"US","ARG_OF_PERICENTER":"68.5289","RA_OF_ASC_NODE":"83.5412","TLE_LINE2":"2 51732  53.2176  83.5412 0001290  68.5289 141.0528 15.73209859  2469","NORAD_CAT_ID":"51732","DECAY_DATE":null,"EPHEMERIS_TYPE":"0","PERIOD":"91.533","ECCENTRICITY":"0.00012900","OBJECT_ID":"2022-016U","MEAN_ANOMALY":"141.0528","OBJECT_NAME":"STARLINK-3518","CENTER_NAME":"EARTH","LAUNCH_DATE":"2022-02-21","EPOCH":"2022-03-04T22:00:00.999936","PERIAPSIS":"348.864","CLASSIFICATION_TYPE":"U","SITE":"AFETR"},{"BSTAR":"0.00000571650000","APOAPSIS":"350.484","REF_FRAME":"TEME","MEAN_ELEMENT_THEORY":"SGP4","FILE":"3344863","REV_AT_EPOCH":"246","SEMIMAJOR_AXIS":"6727.782","COUNTRY_CODE":"US","INCLINATION":"53.2171","MEAN_MOTION_DDOT":"0.0000000000000","ARG_OF_PERICENTER":"59.1286","GP_ID":"197908209","ELEMENT_SET_NO":"999","MEAN_MOTION_DOT":"0.00000183","RCS_SIZE":null,"TIME_SYSTEM":"UTC","TLE_LINE1":"1 51733U 22016V   22063.91667824  .00000183  00000-0  57165-5 0  9997","MEAN_MOTION":"15.73239748","OBJECT_TYPE":"PAYLOAD","PERIOD":"91.531","OBJECT_NAME":"STARLINK-3525","MEAN_ANOMALY":"149.1540","OBJECT_ID":"2022-016V","CENTER_NAME":"EARTH","ECCENTRICITY":"0.00012450","LAUNCH_DATE":"2022-02-21","EPOCH":"2022-03-04T22:00:00.999936","PERIAPSIS":"348.809","SITE":"AFETR","CLASSIFICATION_TYPE":"U","RA_OF_ASC_NODE":"83.5430","TLE_LINE2":"2 51733  53.2171  83.5430 0001245  59.1286 149.1540 15.73239748  2461","NORAD_CAT_ID":"51733","DECAY_DATE":null,"EPHEMERIS_TYPE":"0"},{"LAUNCH_DATE":"2022-02-21","EPOCH":"2022-03-04T22:00:00.999936","PERIAPSIS":"348.794","SITE":"AFETR","CLASSIFICATION_TYPE":"U","PERIOD":"91.532","CENTER_NAME":"EARTH","MEAN_ANOMALY":"147.4848","OBJECT_NAME":"STARLINK-3450","OBJECT_ID":"2022-016W","ECCENTRICITY":"0.00013290","DECAY_DATE":null,"EPHEMERIS_TYPE":"0","RA_OF_ASC_NODE":"83.5374","TLE_LINE2":"2 51734  53.2177  83.5374 0001329  63.9281 147.4848 15.73225289  2463","NORAD_CAT_ID":"51734","SEMIMAJOR_AXIS":"6727.823","COUNTRY_CODE":"US","INCLINATION":"53.2177","MEAN_MOTION_DDOT":"0.0000000000000","ARG_OF_PERICENTER":"63.9281","BSTAR":"0.00025631000000","MEAN_ELEMENT_THEORY":"SGP4","APOAPSIS":"350.582","REF_FRAME":"TEME","FILE":"3344863","REV_AT_EPOCH":"246","RCS_SIZE":null,"TLE_LINE1":"1 51734U 22016W   22063.91667824  .00035542  00000-0  25631-3 0  9996","TIME_SYSTEM":"UTC","MEAN_MOTION":"15.73225289","OBJECT_TYPE":"PAYLOAD","GP_ID":"197908411","ELEMENT_SET_NO":"999","MEAN_MOTION_DOT":"0.00035542"},{"RCS_SIZE":null,"TIME_SYSTEM":"UTC","TLE_LINE1":"1 51735U 22016X   22063.91667824  .00018730  00000-0  13741-3 0  9996","OBJECT_TYPE":"PAYLOAD","MEAN_MOTION":"15.73227081","GP_ID":"197907782","ELEMENT_SET_NO":"999","MEAN_MOTION_DOT":"0.00018730","SEMIMAJOR_AXIS":"6727.818","INCLINATION":"53.2173","COUNTRY_CODE":"US","MEAN_MOTION_DDOT":"0.0000000000000","ARG_OF_PERICENTER":"72.7754","BSTAR":"0.00013741000000","MEAN_ELEMENT_THEORY":"SGP4","APOAPSIS":"350.411","REF_FRAME":"TEME","FILE":"3344863","REV_AT_EPOCH":"246","DECAY_DATE":null,"EPHEMERIS_TYPE":"0","RA_OF_ASC_NODE":"83.5395","TLE_LINE2":"2 51735  53.2173  83.5395 0001082  72.7754 137.4199 15.73227081  2462","NORAD_CAT_ID":"51735","LAUNCH_DATE":"2022-02-21","EPOCH":"2022-03-04T22:00:00.999936","PERIAPSIS":"348.955","SITE":"AFETR","CLASSIFICATION_TYPE":"U","PERIOD":"91.532","OBJECT_ID":"2022-016X","MEAN_ANOMALY":"137.4199","OBJECT_NAME":"STARLINK-3517","CENTER_NAME":"EARTH","ECCENTRICITY":"0.00010820"},{"APOAPSIS":"350.394","MEAN_ELEMENT_THEORY":"SGP4","REF_FRAME":"TEME","BSTAR":"-0.00045175000000","FILE":"3344771","REV_AT_EPOCH":"307","SEMIMAJOR_AXIS":"6727.759","MEAN_MOTION_DDOT":"0.0000000000000","INCLINATION":"53.2178","COUNTRY_CODE":"US","ARG_OF_PERICENTER":"57.1912","GP_ID":"197882643","ELEMENT_SET_NO":"999","MEAN_MOTION_DOT":"-0.00063670","RCS_SIZE":null,"TLE_LINE1":"1 51736U 22016Y   22063.91667824 -.00063670  00000-0 -45175-3 0  9998","TIME_SYSTEM":"UTC","MEAN_MOTION":"15.73247730","OBJECT_TYPE":"PAYLOAD","PERIOD":"91.530","ECCENTRICITY":"0.00011440","CENTER_NAME":"EARTH","MEAN_ANOMALY":"155.5714","OBJECT_ID":"2022-016Y","OBJECT_NAME":"STARLINK-3447","LAUNCH_DATE":"2022-02-21","EPOCH":"2022-03-04T22:00:00.999936","PERIAPSIS":"348.854","CLASSIFICATION_TYPE":"U","SITE":"AFETR","RA_OF_ASC_NODE":"83.5348","TLE_LINE2":"2 51736  53.2178  83.5348 0001144  57.1912 155.5714 15.73247730  3073","NORAD_CAT_ID":"51736","DECAY_DATE":null,"EPHEMERIS_TYPE":"0"},{"ECCENTRICITY":"0.00012950","MEAN_ANOMALY":"138.5786","CENTER_NAME":"EARTH","OBJECT_NAME":"STARLINK-3509","OBJECT_ID":"2022-016Z","PERIOD":"91.530","PERIAPSIS":"348.753","CLASSIFICATION_TYPE":"U","SITE":"AFETR","LAUNCH_DATE":"2022-02-21","EPOCH":"2022-03-04T22:00:00.999936","NORAD_CAT_ID":"51737","RA_OF_ASC_NODE":"83.5380","TLE_LINE2":"2 51737  53.2174  83.5380 0001295  72.2299 138.5786 15.73247595  2460","EPHEMERIS_TYPE":"0","DECAY_DATE":null,"REV_AT_EPOCH":"246","REF_FRAME":"TEME","APOAPSIS":"350.496","MEAN_ELEMENT_THEORY":"SGP4","BSTAR":"-0.00011950000000","FILE":"3344863","ARG_OF_PERICENTER":"72.2299","SEMIMAJOR_AXIS":"6727.759","MEAN_MOTION_DDOT":"0.0000000000000","COUNTRY_CODE":"US","INCLINATION":"53.2174","ELEMENT_SET_NO":"999","MEAN_MOTION_DOT":"-0.00017391","GP_ID":"197907887","TLE_LINE1":"1 51737U 22016Z   22063.91667824 -.00017391  00000-0 -11950-3 0  9992","TIME_SYSTEM":"UTC","MEAN_MOTION":"15.73247595","OBJECT_TYPE":"PAYLOAD","RCS_SIZE":null},{"DECAY_DATE":null,"EPHEMERIS_TYPE":"0","RA_OF_ASC_NODE":"83.5325","TLE_LINE2":"2 51738  53.2179  83.5325 0001495  67.6901 146.3546 15.73247117  3052","NORAD_CAT_ID":"51738","LAUNCH_DATE":"2022-02-21","EPOCH":"2022-03-04T22:00:00.999936","PERIAPSIS":"348.620","SITE":"AFETR","CLASSIFICATION_TYPE":"U","PERIOD":"91.530","OBJECT_ID":"2022-016AA","MEAN_ANOMALY":"146.3546","OBJECT_NAME":"STARLINK-3515","CENTER_NAME":"EARTH","ECCENTRICITY":"0.00014950","RCS_SIZE":null,"TIME_SYSTEM":"UTC","TLE_LINE1":"1 51738U 22016AA  22063.91667824 -.00070188  00000-0 -49883-3 0  9992","MEAN_MOTION":"15.73247117","OBJECT_TYPE":"PAYLOAD","GP_ID":"197882053","ELEMENT_SET_NO":"999","MEAN_MOTION_DOT":"-0.00070188","SEMIMAJOR_AXIS":"6727.761","COUNTRY_CODE":"US","INCLINATION":"53.2179","MEAN_MOTION_DDOT":"0.0000000000000","ARG_OF_PERICENTER":"67.6901","BSTAR":"-0.00049883000000","MEAN_ELEMENT_THEORY":"SGP4","APOAPSIS":"350.632","REF_FRAME":"TEME","FILE":"3344787","REV_AT_EPOCH":"305"},{"SEMIMAJOR_AXIS":"6727.900","COUNTRY_CODE":"US","INCLINATION":"53.2175","MEAN_MOTION_DDOT":"0.0000000000000","ARG_OF_PERICENTER":"63.6860","BSTAR":"0.00006708200000","APOAPSIS":"350.605","MEAN_ELEMENT_THEORY":"SGP4","REF_FRAME":"TEME","FILE":"3344863","REV_AT_EPOCH":"246","RCS_SIZE":null,"TIME_SYSTEM":"UTC","TLE_LINE1":"1 51739U 22016AB  22063.91667824  .00008804  00000-0  67082-4 0  9999","OBJECT_TYPE":"PAYLOAD","MEAN_MOTION":"15.73198325","GP_ID":"197908105","ELEMENT_SET_NO":"999","MEAN_MOTION_DOT":"0.00008804","LAUNCH_DATE":"2022-02-21","EPOCH":"2022-03-04T22:00:00.999936","PERIAPSIS":"348.925","SITE":"AFETR","CLASSIFICATION_TYPE":"U","PERIOD":"91.533","MEAN_ANOMALY":"148.4615","OBJECT_NAME":"STARLINK-3516","OBJECT_ID":"2022-016AB","CENTER_NAME":"EARTH","ECCENTRICITY":"0.00012490","DECAY_DATE":null,"EPHEMERIS_TYPE":"0","RA_OF_ASC_NODE":"83.5356","TLE_LINE2":"2 51739  53.2175  83.5356 0001249  63.6860 148.4615 15.73198325  2460","NORAD_CAT_ID":"51739"},{"GP_ID":"197908315","ELEMENT_SET_NO":"999","MEAN_MOTION_DOT":"0.00006689","RCS_SIZE":null,"TLE_LINE1":"1 51740U 22016AC  22063.91667824  .00006689  00000-0  51973-4 0  9992","TIME_SYSTEM":"UTC","MEAN_MOTION":"15.73228000","OBJECT_TYPE":"PAYLOAD","BSTAR":"0.00005197300000","MEAN_ELEMENT_THEORY":"SGP4","APOAPSIS":"350.318","REF_FRAME":"TEME","FILE":"3344863","REV_AT_EPOCH":"246","SEMIMAJOR_AXIS":"6727.815","COUNTRY_CODE":"US","INCLINATION":"53.2179","MEAN_MOTION_DDOT":"0.0000000000000","ARG_OF_PERICENTER":"61.2572","RA_OF_ASC_NODE":"83.5285","TLE_LINE2":"2 51740  53.2179  83.5285 0000948  61.2572 154.6781 15.73228000  2463","NORAD_CAT_ID":"51740","DECAY_DATE":null,"EPHEMERIS_TYPE":"0","PERIOD":"91.532","MEAN_ANOMALY":"154.6781","OBJECT_NAME":"STARLINK-3500","OBJECT_ID":"2022-016AC","CENTER_NAME":"EARTH","ECCENTRICITY":"0.00009480","LAUNCH_DATE":"2022-02-21","EPOCH":"2022-03-04T22:00:00.999936","PERIAPSIS":"349.043","SITE":"AFETR","CLASSIFICATION_TYPE":"U"},{"EPOCH":"2022-03-04T22:00:00.999936","LAUNCH_DATE":"2022-02-21","CLASSIFICATION_TYPE":"U","SITE":"AFETR","PERIAPSIS":"349.013","PERIOD":"91.531","ECCENTRICITY":"0.00009610","OBJECT_NAME":"STARLINK-3520","MEAN_ANOMALY":"150.3402","CENTER_NAME":"EARTH","OBJECT_ID":"2022-016AD","DECAY_DATE":null,"EPHEMERIS_TYPE":"0","TLE_LINE2":"2 51741  53.2175  83.5330 0000961  63.0539 150.3402 15.73235420  2466","RA_OF_ASC_NODE":"83.5330","NORAD_CAT_ID":"51741","MEAN_MOTION_DDOT":"0.0000000000000","COUNTRY_CODE":"US","INCLINATION":"53.2175","SEMIMAJOR_AXIS":"6727.794","ARG_OF_PERICENTER":"63.0539","FILE":"3344863","APOAPSIS":"350.306","MEAN_ELEMENT_THEORY":"SGP4","REF_FRAME":"TEME","BSTAR":"-0.00005838700000","REV_AT_EPOCH":"246","RCS_SIZE":null,"OBJECT_TYPE":"PAYLOAD","MEAN_MOTION":"15.73235420","TIME_SYSTEM":"UTC","TLE_LINE1":"1 51741U 22016AD  22063.91667824 -.00008817  00000-0 -58387-4 0  9996","GP_ID":"197908210","MEAN_MOTION_DOT":"-0.00008817","ELEMENT_SET_NO":"999"}];
